[{"OBJECT_NAME":"STARLINK-32449","OBJECT_ID":"2024-193K","EPOCH":"2026-03-09T11:28:23.328192","MEAN_MOTION":15.30175539,"ECCENTRICITY":8.438e-5,"INCLINATION":53.1602,"RA_OF_ASC_NODE":92.0291,"ARG_OF_PERICENTER":77.9041,"MEAN_ANOMALY":282.2055,"EPHEMERIS_TYPE":0,"CLASSIFICATION_TYPE":"U","NORAD_CAT_ID":61670,"ELEMENT_SET_NO":999,"REV_AT_EPOCH":7649,"BSTAR":-4.6982467e-5,"MEAN_MOTION_DOT":-1.749e-5,"MEAN_MOTION_DDOT":0},{"OBJECT_NAME":"TITAN 4B R\/B","OBJECT_ID":"2005-016B","EPOCH":"2026-03-09T20:27:57.848832","MEAN_MOTION":15.42682045,"ECCENTRICITY":0.00616552,"INCLINATION":56.9964,"RA_OF_ASC_NODE":245.9411,"ARG_OF_PERICENTER":20.2929,"MEAN_ANOMALY":340.0555,"EPHEMERIS_TYPE":0,"CLASSIFICATION_TYPE":"U","NORAD_CAT_ID":28647,"ELEMENT_SET_NO":999,"REV_AT_EPOCH":37707,"BSTAR":0.00046483736,"MEAN_MOTION_DOT":0.0002164,"MEAN_MOTION_DDOT":0}]
